H1 CPF 01  gfz 2022 04 26 00  6161 tandemx   
H2 1003001  6202 36605    2022 04 26 00 59 42 2022 05 01 00 00 42   120 1 1  0 0 0
H9
10 0 59699  55422.000000  0   -5100596.164  -4424918.168   1358257.078
10 0 59699  55542.000000  0   -5308443.357  -4366420.335    461767.999
10 0 59699  55662.000000  0   -5421793.079  -4228793.456   -442851.461
10 0 59699  55782.000000  0   -5437363.276  -4016163.193  -1339680.937
10 0 59699  55902.000000  0   -5353683.547  -3734017.329  -2212957.964
10 0 59699  56022.000000  0   -5171137.102  -3389070.866  -3047362.515
10 0 59699  56142.000000  0   -4891965.534  -2989109.106  -3828289.716
10 0 59699  56262.000000  0   -4520237.325  -2542812.315  -4542106.079
10 0 59699  56382.000000  0   -4061780.635  -2059566.569  -5176384.817
10 0 59699  56502.000000  0   -3524082.816  -1549265.651  -5720115.774
10 0 59699  56622.000000  0   -2916159.941  -1022108.149  -6163887.238
10 0 59699  56742.000000  0   -2248399.497   -488394.588  -6500037.775
10 0 59699  56862.000000  0   -1532378.795     41671.184  -6722776.871
10 0 59699  56982.000000  0    -780664.054    558172.419  -6828272.839
10 0 59699  57102.000000  0      -6594.026   1051659.808  -6814711.482
10 0 59699  57222.000000  0     775950.564   1513319.645  -6682323.472
10 0 59699  57342.000000  0    1552789.332   1935126.959  -6433383.334
10 0 59699  57462.000000  0    2309694.272   2309983.411  -6072174.773
10 0 59699  57582.000000  0    3032646.170   2631836.157  -5604924.720
10 0 59699  57702.000000  0    3708090.925   2895775.953  -5039705.435
10 0 59699  57822.000000  0    4323193.976   3098114.253  -4386307.785
10 0 59699  57942.000000  0    4866088.545   3236437.188  -3656082.345
10 0 59699  58062.000000  0    5326110.600   3309633.970  -2861750.229
10 0 59699  58182.000000  0    5694015.633   3317900.479  -2017187.939
10 0 59699  58302.000000  0    5962173.648   3262716.455  -1137186.600
10 0 59699  58422.000000  0    6124734.574   3146795.223   -237190.924
10 0 59699  58542.000000  0    6177760.937   2974007.921    666976.908
10 0 59699  58662.000000  0    6119323.233   2749282.508   1559402.752
10 0 59699  58782.000000  0    5949554.891   2478482.876   2424368.756
10 0 59699  58902.000000  0    5670666.422   2168268.773   3246639.468
10 0 59699  59022.000000  0    5286916.138   1825939.849   4011738.178
10 0 59699  59142.000000  0    4804539.289   1459269.071   4706207.051
10 0 59699  59262.000000  0    4231638.780   1076329.440   5317844.228
10 0 59699  59382.000000  0    3578041.634    685318.362   5835918.565
10 0 59699  59502.000000  0    2855119.755    294383.441   6251354.429
10 0 59699  59622.000000  0    2075585.145    -88544.845   6556883.164
10 0 59699  59742.000000  0    1253262.874   -455911.794   6747164.802
10 0 59699  59862.000000  0     402842.806   -800686.404   6818877.395
10 0 59699  59982.000000  0    -460384.570  -1116495.027   6770770.471
10 0 59699  60102.000000  0   -1320802.624  -1397738.894   6603684.768
10 0 59699  60222.000000  0   -2162749.975  -1639693.453   6320537.202
10 0 59699  60342.000000  0   -2970803.312  -1838586.998   5926272.997
10 0 59699  60462.000000  0   -3730060.934  -1991659.770   5427787.619
10 0 59699  60582.000000  0   -4426422.995  -2097202.693   4833812.260
10 0 59699  60702.000000  0   -5046859.384  -2154573.451   4154765.534
10 0 59699  60822.000000  0   -5579660.678  -2164188.942   3402573.747
10 0 59699  60942.000000  0   -6014666.839  -2127494.660   2590463.683
10 0 59699  61062.000000  0   -6343470.162  -2046912.946   1732730.595
10 0 59699  61182.000000  0   -6559587.625  -1925770.240    844481.926
10 0 59699  61302.000000  0   -6658593.440  -1768203.805    -58636.554
10 0 59699  61422.000000  0   -6638211.837  -1579050.913   -960724.747
10 0 59699  61542.000000  0   -6498365.641  -1363723.545  -1845917.723
10 0 59699  61662.000000  0   -6241180.103  -1128072.310  -2698672.598
10 0 59699  61782.000000  0   -5870942.935   -878243.374  -3504047.052
10 0 59699  61902.000000  0   -5394022.029   -620531.085  -4247963.979
10 0 59699  62022.000000  0   -4818743.573   -361230.060  -4917456.625
10 0 59699  62142.000000  0   -4155234.038   -106491.184  -5500889.786
10 0 59699  62262.000000  0   -3415230.233    137815.263  -5988153.968
10 0 59699  62382.000000  0   -2611862.891    366226.887  -6370828.773
10 0 59699  62502.000000  0   -1759419.941    573803.765  -6642316.232
10 0 59699  62622.000000  0    -873091.858    756228.512  -6797943.985
10 0 59699  62742.000000  0      31295.619    909891.666  -6835036.025
10 0 59699  62862.000000  0     937556.494   1031959.771  -6752952.914
10 0 59699  62982.000000  0    1829426.833   1120425.690  -6553104.404
10 0 59699  63102.000000  0    2690851.120   1174141.571  -6238928.243
10 0 59699  63222.000000  0    3506266.597   1192832.877  -5815836.807
10 0 59699  63342.000000  0    4260880.766   1177093.137  -5291132.443
10 0 59699  63462.000000  0    4940940.337   1128359.883  -4673893.633
10 0 59699  63582.000000  0    5533987.262   1048872.293  -3974829.082
10 0 59699  63702.000000  0    6029094.841    941610.532  -3206101.411
10 0 59699  63822.000000  0    6417079.547    810217.809  -2381123.345
10 0 59699  63942.000000  0    6690684.511    658907.137  -1514327.916
10 0 59699  64062.000000  0    6844727.971    492353.918   -620914.986
10 0 59699  64182.000000  0    6876211.138    315577.132    283419.350
10 0 59699  64302.000000  0    6784384.229    133812.901   1182764.436
10 0 59699  64422.000000  0    6570768.313    -47618.281   2061283.411
10 0 59699  64542.000000  0    6239130.438   -223445.717   2903501.885
10 0 59699  64662.000000  0    5795412.581   -388581.470   3694588.793
10 0 59699  64782.000000  0    5247617.244   -538247.559   4420622.669
10 0 59699  64902.000000  0    4605655.277   -668094.972   5068840.236
10 0 59699  65022.000000  0    3881155.253   -774312.228   5627861.536
10 0 59699  65142.000000  0    3087242.659   -853718.920   6087886.033
10 0 59699  65262.000000  0    2238294.335   -903844.317   6440859.658
10 0 59699  65382.000000  0    1349673.070   -922988.940   6680610.218
10 0 59699  65502.000000  0     437445.302   -910268.215   6802950.552
10 0 59699  65622.000000  0    -481911.367   -865636.717   6805745.979
10 0 59699  65742.000000  0   -1391805.117   -789893.582   6688948.079
10 0 59699  65862.000000  0   -2275827.928   -684668.231   6454595.093
10 0 59699  65982.000000  0   -3118049.922   -552386.771   6106778.795
10 0 59699  66102.000000  0   -3903307.255   -396219.565   5651578.887
10 0 59699  66222.000000  0   -4617479.385   -220011.267   5096963.370
10 0 59699  66342.000000  0   -5247749.702    -28194.119   4452654.635
10 0 59699  66462.000000  0   -5782843.781    174313.626   3729963.245
10 0 59699  66582.000000  0   -6213239.936    382222.563   2941591.942
10 0 59699  66702.000000  0   -6531348.839    589997.873   2101413.376
10 0 59699  66822.000000  0   -6731656.962    791992.964   1224223.137
10 0 59699  66942.000000  0   -6810829.971    982587.153    325473.400
10 0 59699  67062.000000  0   -6767772.315   1156324.620   -579007.868
10 0 59699  67182.000000  0   -6603640.438   1308050.663  -1473305.101
10 0 59699  67302.000000  0   -6321810.811   1433041.232  -2341702.814
10 0 59699  67422.000000  0   -5927805.664   1527124.469  -3168968.888
10 0 59699  67542.000000  0   -5429174.033   1586789.091  -3940627.751
10 0 59699  67662.000000  0   -4835334.082   1609276.914  -4643213.909
10 0 59699  67782.000000  0   -4157382.694   1592658.753  -5264503.015
10 0 59699  67902.000000  0   -3407877.165   1535891.669  -5793716.571
10 0 59699  68022.000000  0   -2600595.399   1438856.772  -6221698.799
10 0 59699  68142.000000  0   -1750278.396   1302376.894  -6541064.365
10 0 59699  68262.000000  0    -872359.421   1128214.951  -6746313.807
10 0 59699  68382.000000  0      17312.605    919051.965  -6833917.124
10 0 59699  68502.000000  0     902751.793    678446.736  -6802367.459
10 0 59699  68622.000000  0    1768115.528    410776.532  -6652206.738
10 0 59699  68742.000000  0    2597982.380    121159.308  -6386016.988
10 0 59699  68862.000000  0    3377621.506   -184640.468  -6008380.988
10 0 59699  68982.000000  0    4093251.316   -500322.149  -5525810.619
10 0 59699  69102.000000  0    4732282.181   -819173.198  -4946645.584
10 0 59699  69222.000000  0    5283543.110  -1134206.382  -4280921.795
10 0 59699  69342.000000  0    5737485.113  -1438306.908  -3540207.657
10 0 59699  69462.000000  0    6086357.013  -1724386.751  -2737411.476
10 0 59699  69582.000000  0    6324349.738  -1985543.254  -1886561.812
10 0 59699  69702.000000  0    6447704.704  -2215218.107  -1002563.733
10 0 59699  69822.000000  0    6454783.083  -2407352.268   -100935.815
10 0 59699  69942.000000  0    6346093.772  -2556533.616    802467.563
10 0 59699  70062.000000  0    6124278.368  -2658132.552   1691743.014
10 0 59699  70182.000000  0    5794052.341  -2708422.503   2551227.668
10 0 59699  70302.000000  0    5362104.227  -2704682.094   3365783.660
10 0 59699  70422.000000  0    4836954.823  -2645275.321   4121072.107
10 0 59699  70542.000000  0    4228782.322  -2529708.401   4803808.371
10 0 59699  70662.000000  0    3549218.505  -2358663.681   5401998.113
10 0 59699  70782.000000  0    2811116.652  -2134008.210   5905147.467
10 0 59699  70902.000000  0    2028301.049  -1858776.669   6304442.357
10 0 59699  71022.000000  0    1215302.916  -1537130.798   6592897.333
10 0 59699  71142.000000  0     387087.098  -1174295.592   6765471.961
10 0 59699  71262.000000  0    -441224.921   -776473.047   6819153.144
10 0 59699  71382.000000  0   -1254630.433   -350735.476   6753003.541
10 0 59699  71502.000000  0   -2038515.949     95099.939   6568176.803
10 0 59699  71622.000000  0   -2778918.708    552614.177   6267898.961
10 0 59699  71742.000000  0   -3462775.740   1012944.363   5857416.210
10 0 59699  71862.000000  0   -4078157.036   1466954.182   5343909.419
99
